NORAD_CAT_ID,OBJECT_NAME,OBJECT_TYPE,EPOCH,MEAN_MOTION,ECCENTRICITY,INCLINATION,RA_OF_ASC_NODE,ARG_OF_PERICENTER,MEAN_ANOMALY,BSTAR,MEAN_MOTION_DOT,MEAN_MOTION_DDOT,TLE_LINE0,TLE_LINE1,TLE_LINE2,SEMIMAJOR_AXIS,PERIOD,APOGEE,PERIGEE,DECAYED
53255.0,STARLINK-4142,PAYLOAD,2023-10-20 16:48:45,15.08830324,0.0001541,53.216,144.1445,96.414,263.7027,-5.4286e-05,-1.152e-05,0.0,0 STARLINK-4142,1 53255U 22086P   23293.70052882 -.00001152  00000-0 -54286-4 0  9999,2 53255  53.2160 144.1445 0001541  96.4140 263.7027 15.08830324 69395,6917.91,95.438,540.841,538.709,0.0
53255.0,STARLINK-4142,PAYLOAD,2023-10-20 21:34:55,15.08828184,0.0001222,53.2152,143.253,99.3259,260.7872,-0.00011527,-2.121e-05,0.0,0 STARLINK-4142,1 53255U 22086P   23293.89925150 -.00002121  00000-0 -11527-3 0  9993,2 53255  53.2152 143.2530 0001222  99.3259 260.7872 15.08828184 69600,6917.917,95.438,540.627,538.936,0.0
53255.0,STARLINK-4142,PAYLOAD,2023-10-21 13:28:46,15.08831445,0.0001175,53.2161,140.2761,75.9167,284.1956,0.00022372,3.274e-05,0.0,0 STARLINK-4142,1 53255U 22086P   23294.56165299  .00003274  00000-0  22372-3 0  9996,2 53255  53.2161 140.2761 0001175  75.9167 284.1956 15.08831445 69706,6917.907,95.438,540.584,538.959,0.0
53255.0,STARLINK-4142,PAYLOAD,2023-10-21 16:39:32,15.08840584,0.0001408,53.2155,139.6836,91.6307,268.4847,0.0003256,4.898e-05,0.0,0 STARLINK-4142,1 53255U 22086P   23294.69412855  .00004898  00000-0  32560-3 0  9996,2 53255  53.2155 139.6836 0001408  91.6307 268.4847 15.08840584 69544,6917.879,95.438,540.718,538.77,0.0
53255.0,STARLINK-4142,PAYLOAD,2023-10-21 21:25:42,15.08848096,0.0001462,53.2151,138.7912,91.3078,268.8081,0.00048658,7.466e-05,0.0,0 STARLINK-4142,1 53255U 22086P   23294.89284749  .00007466  00000-0  48658-3 0  9996,2 53255  53.2151 138.7912 0001462  91.3078 268.8081 15.08848096 69750,6917.856,95.437,540.732,538.709,0.0
53255.0,STARLINK-4142,PAYLOAD,2023-10-22 06:58:01,15.08841744,0.0001507,53.2164,137.0083,85.4753,274.6411,0.00024541,3.62e-05,0.0,0 STARLINK-4142,1 53255U 22086P   23295.29029063  .00003620  00000-0  24541-3 0  9990,2 53255  53.2164 137.0083 0001507  85.4753 274.6411 15.08841744 69811,6917.875,95.437,540.783,538.698,0.0
53255.0,STARLINK-4142,PAYLOAD,2023-10-22 19:41:06,15.08836716,0.0001421,53.215,134.6281,99.4278,260.6875,8.1128e-06,-1.59e-06,0.0,0 STARLINK-4142,1 53255U 22086P   23295.82021225 -.00000159  00000-0  81128-5 0  9992,2 53255  53.2150 134.6281 0001421  99.4278 260.6875 15.08836716 69712,6917.89,95.438,540.738,538.772,0.0
53255.0,STARLINK-4142,PAYLOAD,2023-10-23 21:07:16,15.08853228,0.0001444,53.2155,129.8701,99.4113,260.7043,0.00059281,9.163e-05,0.0,0 STARLINK-4142,1 53255U 22086P   23296.88005021  .00009163  00000-0  59281-3 0  9991,2 53255  53.2155 129.8701 0001444  99.4113 260.7043 15.08853228 70057,6917.84,95.437,540.704,538.706,0.0
53255.0,STARLINK-4142,PAYLOAD,2023-10-24 03:28:49,15.0884011,0.0001417,53.2155,128.6803,93.165,266.9504,0.00018491,2.656e-05,0.0,0 STARLINK-4142,1 53255U 22086P   23297.14501268  .00002656  00000-0  18491-3 0  9993,2 53255  53.2155 128.6803 0001417  93.1650 266.9504 15.08840110 69913,6917.88,95.438,540.725,538.765,0.0
53255.0,STARLINK-4142,PAYLOAD,2023-10-24 13:01:07,15.08842425,0.0001336,53.2154,126.8961,98.5564,261.5579,0.00014309,1.99e-05,0.0,0 STARLINK-4142,1 53255U 22086P   23297.54245158  .00001990  00000-0  14309-3 0  9994,2 53255  53.2154 126.8961 0001336  98.5564 261.5579 15.08842425 70152,6917.873,95.437,540.662,538.814,0.0
53255.0,STARLINK-4142,PAYLOAD,2023-10-24 14:36:30,15.08845251,0.0001386,53.2155,126.5989,100.6846,259.4302,0.00021136,3.078e-05,0.0,0 STARLINK-4142,1 53255U 22086P   23297.60869073  .00003078  00000-0  21136-3 0  9994,2 53255  53.2155 126.5989 0001386 100.6846 259.4302 15.08845251 70164,6917.864,95.437,540.688,538.771,0.0
53255.0,STARLINK-4142,PAYLOAD,2023-10-25 12:51:54,15.08838435,0.0001416,53.2156,122.4357,92.5216,267.5938,9.6684e-05,1.251e-05,0.0,0 STARLINK-4142,1 53255U 22086P   23298.53605280  .00001251  00000-0  96684-4 0  9997,2 53255  53.2156 122.4357 0001416  92.5216 267.5938 15.08838435 70120,6917.885,95.438,540.73,538.771,0.0
53255.0,STARLINK-4142,PAYLOAD,2023-10-25 20:48:50,15.08845125,0.0001393,53.2156,120.9491,91.8096,268.3056,0.00016966,2.414e-05,0.0,0 STARLINK-4142,1 53255U 22086P   23298.86725140  .00002414  00000-0  16966-3 0  9997,2 53255  53.2156 120.9491 0001393  91.8096 268.3056 15.08845125 70353,6917.865,95.437,540.693,538.766,0.0
53255.0,STARLINK-4142,PAYLOAD,2023-10-26 12:42:41,15.0884797,0.0001384,53.2154,117.9753,89.883,270.2321,0.00028732,4.289e-05,0.0,0 STARLINK-4142,1 53255U 22086P   23299.52965021  .00004289  00000-0  28732-3 0  9991,2 53255  53.2154 117.9753 0001384  89.8830 270.2321 15.08847970 70459,6917.856,95.437,540.678,538.764,0.0
53255.0,STARLINK-4142,PAYLOAD,2023-10-26 20:39:37,15.08852744,0.0001371,53.2155,116.4885,89.3221,270.7928,0.00031301,4.699e-05,0.0,0 STARLINK-4142,1 53255U 22086P   23299.86084695  .00004699  00000-0  31301-3 0  9998,2 53255  53.2155 116.4885 0001371  89.3221 270.7928 15.08852744 70504,6917.841,95.437,540.655,538.758,0.0
53255.0,STARLINK-4142,PAYLOAD,2023-10-27 04:36:32,15.08846411,0.0001374,53.2155,115.0015,88.24,271.875,0.00015882,2.241e-05,0.0,0 STARLINK-4142,1 53255U 22086P   23300.19204835  .00002241  00000-0  15882-3 0  9994,2 53255  53.2155 115.0015 0001374  88.2400 271.8750 15.08846411 70378,6917.861,95.437,540.676,538.775,0.0
53255.0,STARLINK-4142,PAYLOAD,2023-10-27 20:30:24,15.08845545,0.0001375,53.2156,112.0276,87.3471,272.7679,9.4168e-05,1.211e-05,0.0,0 STARLINK-4142,1 53255U 22086P   23300.85444648  .00001211  00000-0  94168-4 0  9996,2 53255  53.2156 112.0276 0001375  87.3471 272.7679 15.08845545 70652,6917.863,95.437,540.68,538.777,0.0
53255.0,STARLINK-4142,PAYLOAD,2023-10-28 20:21:11,15.08839942,0.0001364,53.2169,107.5669,87.5825,272.5323,1.2974e-05,-8.1e-07,0.0,0 STARLINK-4142,1 53255U 22086P   23301.84805494 -.00000081  00000-0  12974-4 0  9996,2 53255  53.2169 107.5669 0001364  87.5825 272.5323 15.08839942 70629,6917.881,95.438,540.689,538.802,0.0
53255.0,STARLINK-4142,PAYLOAD,2023-10-29 04:18:07,15.08841304,0.0001317,53.2174,106.0789,87.415,272.6993,4.6925e-05,4.59e-06,0.0,0 STARLINK-4142,1 53255U 22086P   23302.17925356  .00000459  00000-0  46925-4 0  9994,2 53255  53.2174 106.0789 0001317  87.4150 272.6993 15.08841304 70854,6917.876,95.437,540.652,538.83,0.0
53255.0,STARLINK-4142,PAYLOAD,2023-10-29 18:36:35,15.08845093,0.0001313,53.2169,103.4034,87.5961,272.5182,0.00021133,3.077e-05,0.0,0 STARLINK-4142,1 53255U 22086P   23302.77540657  .00003077  00000-0  21133-3 0  9999,2 53255  53.2169 103.4034 0001313  87.5961 272.5182 15.08845093 70767,6917.865,95.437,540.638,538.822,0.0
53255.0,STARLINK-4142,PAYLOAD,2023-10-30 10:30:27,15.08838363,0.0001397,53.2165,100.4288,84.7839,275.3313,0.00012083,1.636e-05,0.0,0 STARLINK-4142,1 53255U 22086P   23303.43781539  .00001636  00000-0  12083-3 0  9992,2 53255  53.2165 100.4288 0001397  84.7839 275.3313 15.08838363 70866,6917.885,95.438,540.717,538.784,0.0
53255.0,STARLINK-4142,PAYLOAD,2023-10-30 16:51:59,15.08838426,0.0001403,53.2158,99.2415,86.9804,273.1349,9.827e-05,1.276e-05,0.0,0 STARLINK-4142,1 53255U 22086P   23303.70277521  .00001276  00000-0  98270-4 0  9996,2 53255  53.2158  99.2415 0001403  86.9804 273.1349 15.08838426 71089,6917.885,95.438,540.721,538.78,0.0
53255.0,STARLINK-4142,PAYLOAD,2023-10-31 13:32:00,15.08840749,0.0001387,53.2164,95.3755,88.3374,271.7777,3.6686e-05,2.96e-06,0.0,0 STARLINK-4142,1 53255U 22086P   23304.56389595  .00000296  00000-0  36686-4 0  9990,2 53255  53.2164  95.3755 0001387  88.3374 271.7777 15.08840749 71214,6917.878,95.438,540.703,538.784,0.0
53255.0,STARLINK-4142,PAYLOAD,2023-10-31 16:42:46,15.08841157,0.0001348,53.2169,94.781,87.3647,272.75,3.5876e-05,2.83e-06,0.0,0 STARLINK-4142,1 53255U 22086P   23304.69637535  .00000283  00000-0  35876-4 0  9990,2 53255  53.2169  94.7810 0001348  87.3647 272.7500 15.08841157 71054,6917.877,95.437,540.674,538.809,0.0
53255.0,STARLINK-4142,PAYLOAD,2023-11-01 13:22:47,15.0883857,0.0001516,53.2174,90.9154,87.8963,272.2203,5.8744e-05,6.47e-06,0.0,0 STARLINK-4142,1 53255U 22086P   23305.55749684  .00000647  00000-0  58744-4 0  9998,2 53255  53.2174  90.9154 0001516  87.8963 272.2203 15.08838570 71366,6917.885,95.438,540.799,538.701,0.0
53255.0,STARLINK-4142,PAYLOAD,2023-11-01 19:44:19,15.08845544,0.00014,53.2179,89.7256,90.654,269.4613,0.00010974,1.459e-05,0.0,0 STARLINK-4142,1 53255U 22086P   23305.82245081  .00001459  00000-0  10974-3 0  9994,2 53255  53.2179  89.7256 0001400  90.6540 269.4613 15.08845544 71222,6917.863,95.437,540.697,538.76,0.0
53255.0,STARLINK-4142,PAYLOAD,2023-11-02 13:13:34,15.08842164,0.0001672,53.2174,86.4505,107.1193,252.9982,5.3957e-05,5.71e-06,0.0,0 STARLINK-4142,1 53255U 22086P   23306.55109623  .00000571  00000-0  53957-4 0  9999,2 53255  53.2174  86.4505 0001672 107.1193 252.9982 15.08842164 71330,6917.874,95.437,540.895,538.582,0.0
53255.0,STARLINK-4142,PAYLOAD,2023-11-02 14:48:57,15.08839486,0.0001472,53.2185,86.1576,94.4846,265.6314,8.3212e-05,1.037e-05,0.0,0 STARLINK-4142,1 53255U 22086P   23306.61733744  .00001037  00000-0  83212-4 0  9998,2 53255  53.2185  86.1576 0001472  94.4846 265.6314 15.08839486 71522,6917.882,95.438,540.765,538.729,0.0
53255.0,STARLINK-4142,PAYLOAD,2023-11-02 16:24:20,15.08843892,0.000131,53.2181,85.8601,87.9342,272.18,0.00011277,1.507e-05,0.0,0 STARLINK-4142,1 53255U 22086P   23306.68357434  .00001507  00000-0  11277-3 0  9996,2 53255  53.2181  85.8601 0001310  87.9342 272.1800 15.08843892 71532,6917.868,95.437,540.64,538.827,0.0
53255.0,STARLINK-4142,PAYLOAD,2023-11-03 08:18:12,15.08840957,0.0001286,53.2181,82.8879,89.7507,270.3632,1.1905e-05,-9.8e-07,0.0,0 STARLINK-4142,1 53255U 22086P   23307.34598055 -.00000098  00000-0  11905-4 0  9990,2 53255  53.2181  82.8879 0001286  89.7507 270.3632 15.08840957 71454,6917.877,95.437,540.632,538.853,0.0
